[{"OBJECT_NAME":"STARLINK-5787","OBJECT_ID":"2023-042U","EPOCH":"2026-03-09T00:30:06.566112","MEAN_MOTION":15.02528532,"ECCENTRICITY":0.00014679,"INCLINATION":43.0055,"RA_OF_ASC_NODE":59.4097,"ARG_OF_PERICENTER":270.8583,"MEAN_ANOMALY":89.2091,"EPHEMERIS_TYPE":0,"CLASSIFICATION_TYPE":"U","NORAD_CAT_ID":56004,"ELEMENT_SET_NO":999,"REV_AT_EPOCH":16281,"BSTAR":-4.8640846e-5,"MEAN_MOTION_DOT":-8.61e-6,"MEAN_MOTION_DDOT":0},{"OBJECT_NAME":"FENGYUN 1C DEB","OBJECT_ID":"1999-025ATE","EPOCH":"2026-03-09T09:33:08.339616","MEAN_MOTION":15.01474525,"ECCENTRICITY":0.00075584,"INCLINATION":98.7312,"RA_OF_ASC_NODE":229.2263,"ARG_OF_PERICENTER":329.2571,"MEAN_ANOMALY":91.5818,"EPHEMERIS_TYPE":0,"CLASSIFICATION_TYPE":"U","NORAD_CAT_ID":30744,"ELEMENT_SET_NO":999,"REV_AT_EPOCH":99383,"BSTAR":0.0056947952,"MEAN_MOTION_DOT":0.0007432,"MEAN_MOTION_DDOT":0}]
